#Pass ID: 20250117_024132_FENGYUN 3E
#Satellite: FENGYUN 3E
#Configuration: FENGYUN 3E
#Start time: 2025-01-17 02:41:37.093361

#LorettStation: 1.0.0 05.05.2024
#Station: Regia
#Location: 37.494653 lon 55.929028 lat
#TLE: 1 49008U 21062A   25016.10364871  .00000042  00000+0  40551-4 0  9990
#TLE: 2 49008  98.7395  20.6066 0002417 119.8034 240.3382 14.19832946183207

#Time	Az	El	Level	SNR
#Closed at: 2025-01-17 02:41:32.095229